{"fetched_at":"2026-07-15T17:47:16.434Z","source":"https://celestrak.org/NORAD/elements/gp.php?NAME=ICEYE&FORMAT=JSON","constellation":"iceye","records":[{"OBJECT_NAME":"ICEYE-X2","OBJECT_ID":"2018-099AU","EPOCH":"2026-07-15T05:23:45.389760","CLASSIFICATION_TYPE":"U","MEAN_MOTION":15.18042553,"ECCENTRICITY":0.0009816,"INCLINATION":97.4342,"RA_OF_ASC_NODE":249.5749,"ARG_OF_PERICENTER":195.6431,"MEAN_ANOMALY":164.4501,"EPHEMERIS_TYPE":0,"NORAD_CAT_ID":43800,"ELEMENT_SET_NO":999,"REV_AT_EPOCH":41707,"BSTAR":0.0002084,"MEAN_MOTION_DOT":0.00004179,"MEAN_MOTION_DDOT":0},{"OBJECT_NAME":"ICEYE-X4","OBJECT_ID":"2019-038D","EPOCH":"2026-07-15T04:43:33.285792","CLASSIFICATION_TYPE":"U","MEAN_MOTION":15.29882191,"ECCENTRICITY":0.0012869,"INCLINATION":97.8744,"RA_OF_ASC_NODE":230.7666,"ARG_OF_PERICENTER":198.0242,"MEAN_ANOMALY":162.0543,"EPHEMERIS_TYPE":0,"NORAD_CAT_ID":44390,"ELEMENT_SET_NO":999,"REV_AT_EPOCH":38608,"BSTAR":0.00023627,"MEAN_MOTION_DOT":0.00006768,"MEAN_MOTION_DDOT":0},{"OBJECT_NAME":"ICEYE-X7","OBJECT_ID":"2020-068L","EPOCH":"2026-07-15T03:58:14.193984","CLASSIFICATION_TYPE":"U","MEAN_MOTION":15.32095635,"ECCENTRICITY":0.0006025,"INCLINATION":97.7507,"RA_OF_ASC_NODE":163.9774,"ARG_OF_PERICENTER":213.0063,"MEAN_ANOMALY":147.0802,"EPHEMERIS_TYPE":0,"NORAD_CAT_ID":46496,"ELEMENT_SET_NO":999,"REV_AT_EPOCH":31907,"BSTAR":0.00019761,"MEAN_MOTION_DOT":0.00006041,"MEAN_MOTION_DDOT":0},{"OBJECT_NAME":"ICEYE-X6","OBJECT_ID":"2020-068M","EPOCH":"2026-07-15T04:32:58.980192","CLASSIFICATION_TYPE":"U","MEAN_MOTION":15.04667159,"ECCENTRICITY":0.0007227,"INCLINATION":98.0989,"RA_OF_ASC_NODE":191.2035,"ARG_OF_PERICENTER":10.537,"MEAN_ANOMALY":349.6005,"EPHEMERIS_TYPE":0,"NORAD_CAT_ID":46497,"ELEMENT_SET_NO":999,"REV_AT_EPOCH":31744,"BSTAR":0.00011815,"MEAN_MOTION_DOT":0.00001594,"MEAN_MOTION_DDOT":0},{"OBJECT_NAME":"ICEYE-X21","OBJECT_ID":"2023-001AS","EPOCH":"2026-06-24T05:11:18.420288","CLASSIFICATION_TYPE":"U","MEAN_MOTION":16.24069885,"ECCENTRICITY":0.00123774,"INCLINATION":97.3001,"RA_OF_ASC_NODE":262.6152,"ARG_OF_PERICENTER":285.9702,"MEAN_ANOMALY":74.0225,"EPHEMERIS_TYPE":0,"NORAD_CAT_ID":55049,"ELEMENT_SET_NO":999,"REV_AT_EPOCH":19475,"BSTAR":0.000602142,"MEAN_MOTION_DOT":0.01585954,"MEAN_MOTION_DDOT":0.000002396838},{"OBJECT_NAME":"ICEYE-X25","OBJECT_ID":"2023-084AH","EPOCH":"2026-07-15T04:31:27.196608","CLASSIFICATION_TYPE":"U","MEAN_MOTION":15.62823194,"ECCENTRICITY":0.000428,"INCLINATION":97.591,"RA_OF_ASC_NODE":344.4243,"ARG_OF_PERICENTER":185.2878,"MEAN_ANOMALY":174.8335,"EPHEMERIS_TYPE":0,"NORAD_CAT_ID":56963,"ELEMENT_SET_NO":999,"REV_AT_EPOCH":17234,"BSTAR":0.00035043,"MEAN_MOTION_DOT":0.0003151,"MEAN_MOTION_DDOT":0},{"OBJECT_NAME":"ICEYE-X31","OBJECT_ID":"2023-174AJ","EPOCH":"2026-07-15T04:08:06.987840","CLASSIFICATION_TYPE":"U","MEAN_MOTION":15.35177809,"ECCENTRICITY":0.0002732,"INCLINATION":97.3776,"RA_OF_ASC_NODE":271.9201,"ARG_OF_PERICENTER":186.1621,"MEAN_ANOMALY":173.9589,"EPHEMERIS_TYPE":0,"NORAD_CAT_ID":58288,"ELEMENT_SET_NO":999,"REV_AT_EPOCH":14904,"BSTAR":0.00030845,"MEAN_MOTION_DOT":0.00010456,"MEAN_MOTION_DDOT":0},{"OBJECT_NAME":"ICEYE-X34","OBJECT_ID":"2023-174AQ","EPOCH":"2026-07-15T04:38:59.964576","CLASSIFICATION_TYPE":"U","MEAN_MOTION":15.71297084,"ECCENTRICITY":0.0001826,"INCLINATION":97.387,"RA_OF_ASC_NODE":288.8582,"ARG_OF_PERICENTER":215.3065,"MEAN_ANOMALY":144.8077,"EPHEMERIS_TYPE":0,"NORAD_CAT_ID":58294,"ELEMENT_SET_NO":999,"REV_AT_EPOCH":15013,"BSTAR":0.0008671,"MEAN_MOTION_DOT":0.00110941,"MEAN_MOTION_DDOT":0},{"OBJECT_NAME":"ICEYE-X35","OBJECT_ID":"2023-174AY","EPOCH":"2026-07-15T04:34:30.794016","CLASSIFICATION_TYPE":"U","MEAN_MOTION":15.55151864,"ECCENTRICITY":0.000776,"INCLINATION":97.3792,"RA_OF_ASC_NODE":281.5887,"ARG_OF_PERICENTER":107.7711,"MEAN_ANOMALY":252.439,"EPHEMERIS_TYPE":0,"NORAD_CAT_ID":58302,"ELEMENT_SET_NO":999,"REV_AT_EPOCH":14969,"BSTAR":0.0004896,"MEAN_MOTION_DOT":0.00033031,"MEAN_MOTION_DDOT":0},{"OBJECT_NAME":"ICEYE-X38","OBJECT_ID":"2024-043C","EPOCH":"2026-07-15T05:24:36.892800","CLASSIFICATION_TYPE":"U","MEAN_MOTION":15.13090953,"ECCENTRICITY":0.0002353,"INCLINATION":97.8436,"RA_OF_ASC_NODE":340.7526,"ARG_OF_PERICENTER":21.324,"MEAN_ANOMALY":338.8087,"EPHEMERIS_TYPE":0,"NORAD_CAT_ID":59100,"ELEMENT_SET_NO":999,"REV_AT_EPOCH":11591,"BSTAR":0.00015004,"MEAN_MOTION_DOT":0.00002585,"MEAN_MOTION_DDOT":0},{"OBJECT_NAME":"ICEYE-X37","OBJECT_ID":"2024-043E","EPOCH":"2026-07-15T03:34:37.704000","CLASSIFICATION_TYPE":"U","MEAN_MOTION":15.0629054,"ECCENTRICITY":0.0013785,"INCLINATION":97.834,"RA_OF_ASC_NODE":333.5972,"ARG_OF_PERICENTER":274.5364,"MEAN_ANOMALY":85.4288,"EPHEMERIS_TYPE":0,"NORAD_CAT_ID":59102,"ELEMENT_SET_NO":999,"REV_AT_EPOCH":12929,"BSTAR":0.00011531,"MEAN_MOTION_DOT":0.00001631,"MEAN_MOTION_DDOT":0},{"OBJECT_NAME":"ICEYE-X36","OBJECT_ID":"2024-043F","EPOCH":"2026-07-15T04:52:08.342112","CLASSIFICATION_TYPE":"U","MEAN_MOTION":15.0723327,"ECCENTRICITY":0.0005331,"INCLINATION":97.84,"RA_OF_ASC_NODE":334.7812,"ARG_OF_PERICENTER":214.3521,"MEAN_ANOMALY":145.7361,"EPHEMERIS_TYPE":0,"NORAD_CAT_ID":59103,"ELEMENT_SET_NO":999,"REV_AT_EPOCH":12936,"BSTAR":0.00018367,"MEAN_MOTION_DOT":0.00002702,"MEAN_MOTION_DDOT":0},{"OBJECT_NAME":"ICEYE-X43","OBJECT_ID":"2024-149BZ","EPOCH":"2026-07-15T04:26:14.971200","CLASSIFICATION_TYPE":"U","MEAN_MOTION":14.99786453,"ECCENTRICITY":0.0006522,"INCLINATION":97.68,"RA_OF_ASC_NODE":272.7743,"ARG_OF_PERICENTER":347.8959,"MEAN_ANOMALY":12.2106,"EPHEMERIS_TYPE":0,"NORAD_CAT_ID":60539,"ELEMENT_SET_NO":999,"REV_AT_EPOCH":10431,"BSTAR":0.000066402,"MEAN_MOTION_DOT":0.00000762,"MEAN_MOTION_DDOT":0},{"OBJECT_NAME":"ICEYE-X39","OBJECT_ID":"2024-149CG","EPOCH":"2026-07-15T03:52:29.217792","CLASSIFICATION_TYPE":"U","MEAN_MOTION":15.00072792,"ECCENTRICITY":0.0006941,"INCLINATION":97.6789,"RA_OF_ASC_NODE":272.8081,"ARG_OF_PERICENTER":46.6165,"MEAN_ANOMALY":313.5636,"EPHEMERIS_TYPE":0,"NORAD_CAT_ID":60546,"ELEMENT_SET_NO":999,"REV_AT_EPOCH":10431,"BSTAR":0.00018702,"MEAN_MOTION_DOT":0.00002272,"MEAN_MOTION_DDOT":0},{"OBJECT_NAME":"ICEYE-X33","OBJECT_ID":"2024-149CJ","EPOCH":"2026-07-15T04:04:33.896928","CLASSIFICATION_TYPE":"U","MEAN_MOTION":15.00884823,"ECCENTRICITY":0.00019,"INCLINATION":97.7366,"RA_OF_ASC_NODE":275.1703,"ARG_OF_PERICENTER":75.057,"MEAN_ANOMALY":285.0864,"EPHEMERIS_TYPE":0,"NORAD_CAT_ID":60548,"ELEMENT_SET_NO":999,"REV_AT_EPOCH":10440,"BSTAR":0.00022604,"MEAN_MOTION_DOT":0.00002816,"MEAN_MOTION_DDOT":0}]}
