ICEYE-X2                
1 43800U 18099AU  26196.22483090  .00004179  00000+0  20840-3 0  9991
2 43800  97.4342 249.5749 0009816 195.6431 164.4501 15.18042553417073
ICEYE-X4                
1 44390U 19038D   26196.19691303  .00006768  00000+0  23627-3 0  9996
2 44390  97.8744 230.7666 0012869 198.0242 162.0543 15.29882191386085
ICEYE-X7                
1 46496U 20068L   26196.16544206  .00006041  00000+0  19761-3 0  9994
2 46496  97.7507 163.9774 0006025 213.0063 147.0802 15.32095635319072
ICEYE-X6                
1 46497U 20068M   26196.18957153  .00001594  00000+0  11815-3 0  9996
2 46497  98.0989 191.2035 0007227  10.5370 349.6005 15.04667159317440
ICEYE-X21               
1 55049U 23001AS  26175.21618542  .01585954  23968-5  60214-3 0  9995
2 55049  97.3001 262.6152 0012377 285.9702  74.0225 16.24069885194757
ICEYE-X25               
1 56963U 23084AH  26196.18850922  .00031510  00000+0  35043-3 0  9992
2 56963  97.5910 344.4243 0004280 185.2878 174.8335 15.62823194172348
ICEYE-X31               
1 58288U 23174AJ  26196.17230310  .00010456  00000+0  30845-3 0  9997
2 58288  97.3776 271.9201 0002732 186.1621 173.9589 15.35177809149049
ICEYE-X34               
1 58294U 23174AQ  26196.19374959  .00110941  00000+0  86710-3 0  9996
2 58294  97.3870 288.8582 0001826 215.3065 144.8077 15.71297084150139
ICEYE-X35               
1 58302U 23174AY  26196.19063419  .00033031  00000+0  48960-3 0  9991
2 58302  97.3792 281.5887 0007760 107.7711 252.4390 15.55151864149695
ICEYE-X38               
1 59100U 24043C   26196.22542700  .00002585  00000+0  15004-3 0  9996
2 59100  97.8436 340.7526 0002353  21.3240 338.8087 15.13090953115916
ICEYE-X37               
1 59102U 24043E   26196.14904750  .00001631  00000+0  11531-3 0  9998
2 59102  97.8340 333.5972 0013785 274.5364  85.4288 15.06290540129297
ICEYE-X36               
1 59103U 24043F   26196.20287433  .00002702  00000+0  18367-3 0  9992
2 59103  97.8400 334.7812 0005331 214.3521 145.7361 15.07233270129364
ICEYE-X43               
1 60539U 24149BZ  26196.18489550  .00000762  00000+0  66402-4 0  9993
2 60539  97.6800 272.7743 0006522 347.8959  12.2106 14.99786453104314
ICEYE-X39               
1 60546U 24149CG  26196.16144928  .00002272  00000+0  18702-3 0  9993
2 60546  97.6789 272.8081 0006941  46.6165 313.5636 15.00072792104314
ICEYE-X33               
1 60548U 24149CJ  26196.16983677  .00002816  00000+0  22604-3 0  9997
2 60548  97.7366 275.1703 0001900  75.0570 285.0864 15.00884823104403
